[{"OBJECT_NAME":"STARLINK-32028","OBJECT_ID":"2024-117E","EPOCH":"2026-03-09T22:25:40.172736","MEAN_MOTION":15.30192027,"ECCENTRICITY":0.00011231,"INCLINATION":53.1623,"RA_OF_ASC_NODE":36.0112,"ARG_OF_PERICENTER":94.0007,"MEAN_ANOMALY":266.1122,"EPHEMERIS_TYPE":0,"CLASSIFICATION_TYPE":"U","NORAD_CAT_ID":60095,"ELEMENT_SET_NO":999,"REV_AT_EPOCH":9692,"BSTAR":4.356212e-5,"MEAN_MOTION_DOT":9.31e-6,"MEAN_MOTION_DDOT":0},{"OBJECT_NAME":"JINJUSAT-1B","OBJECT_ID":"2025-052A","EPOCH":"2026-03-09T15:55:38.242848","MEAN_MOTION":15.30194857,"ECCENTRICITY":0.00055504,"INCLINATION":97.4113,"RA_OF_ASC_NODE":325.4613,"ARG_OF_PERICENTER":82.193,"MEAN_ANOMALY":277.9941,"EPHEMERIS_TYPE":0,"CLASSIFICATION_TYPE":"U","NORAD_CAT_ID":63210,"ELEMENT_SET_NO":999,"REV_AT_EPOCH":5486,"BSTAR":0.00068430401,"MEAN_MOTION_DOT":0.00019955,"MEAN_MOTION_DDOT":0}]
